HAWK-11A                
1 62382U 24247F   26068.51231358  .00009457  00000+0  34106-3 0  9991
2 62382  44.9941 114.3328 0005466 327.3713  32.6832 15.28849427 67741
STARLINK-34186          
1 64145U 25111Y   26068.43961354  .00016533  00000+0  60827-3 0  9990
2 64145  43.0012  79.4066 0001391 285.7216  74.3482 15.27617234 45420
